KUIPER-00229            
1 68578U 26072F   26099.50458985  .00008131  00000+0  23228-3 0  9993
2 68578  51.8698 149.1008 0007750 119.7287 240.4471 15.36887846   817
